ORBCOMM FM103           
1 40091U 14040F   24127.38108331  .00000879  00000+0  23286-3 0  9993
2 40091  47.0044 136.6562 0002352 235.5311 124.5352 14.56545877504762
ORBCOMM FM114           
1 41179U 15081A   24127.48332741  .00001300  00000+0  32639-3 0  9994
2 41179  47.0038  45.4575 0002029 282.3768  77.6890 14.56572610445147
ORBCOMM FM119           
1 41180U 15081B   24127.24756896  .00000970  00000+0  25323-3 0  9995
2 41180  47.0011 315.7584 0001464 320.3386  39.7391 14.56534607446368
ORBCOMM FM105           
1 41181U 15081C   24127.53287271  .00000585  00000+0  21368-3 0  9991
2 41181  47.0011 280.9661 0002286 286.4606  73.6023 14.44363136441940
ORBCOMM FM110           
1 41182U 15081D   24127.46057276  .00001381  00000+0  34428-3 0  9990
2 41182  47.0028  44.9736 0001316  93.2338 266.8697 14.56564134445018
ORBCOMM FM118           
1 41183U 15081E   24127.50651099  .00001447  00000+0  35911-3 0  9990
2 41183  47.0050  45.0625 0001386  89.7300 270.3744 14.56552589445125
ORBCOMM FM112           
1 41184U 15081F   24127.22495766  .00001288  00000+0  32367-3 0  9992
2 41184  46.9993 315.0836 0001309 296.8454  63.2297 14.56575601446303
ORBCOMM FM113           
1 41185U 15081G   24127.81947277  .00001296  00000+0  32552-3 0  9992
2 41185  47.0011 312.5486 0000853 308.4427  51.6381 14.56571156446444
